SITRO-AIS 27            
1 59068U 24039T   26064.28173536  .00005430  00000+0  43011-3 0  9992
2 59068  95.3945 163.8655 0145214 331.1789  28.1468 14.92793143109235
SITRO-AIS 28            
1 59071U 24039U   26064.32860554  .00005216  00000+0  41291-3 0  9994
2 59071  95.3943 163.9396 0145184 330.8262  28.4908 14.92826045109249
GRBBETA                 
1 60237U 24128C   26063.52740679  .00008048  00000+0  55120-3 0  9997
2 60237  61.9892 223.2246 0051948 113.1459 247.5120 15.05714089 90502
OOV-CUBE (TUBSAT-30)    
1 60240U 24128F   26063.90356539  .00004636  00000+0  35460-3 0  9995
2 60240  61.9939 229.0603 0054923 111.3663 249.3301 15.02205334 90441
ROBUSTA-3A (MEDITERRAN*)
1 60243U 24128J   26063.89672002  .00012902  00000+0  77796-3 0  9995
2 60243  61.9860 216.5911 0052310 107.4870 253.1952 15.09945512 90669
LASARSAT                
1 62391U 24247Q   26064.20954619  .00035378  00000+0  87708-3 0  9992
2 62391  44.9754 123.6865 0002782 357.5734   2.5139 15.39833559 67251
CROCUBE                 
1 62394U 24247T   26063.20534325  .00044929  00000+0  10733-2 0  9997
2 62394  44.9726 127.9459 0003019 338.1177  21.9582 15.40856803 67110
