[{"OBJECT_NAME":"SITRO-AIS 27","OBJECT_ID":"2024-039T","EPOCH":"2026-03-05T06:45:41.935104","MEAN_MOTION":14.92793143,"ECCENTRICITY":0.01452148,"INCLINATION":95.3945,"RA_OF_ASC_NODE":163.8655,"ARG_OF_PERICENTER":331.1789,"MEAN_ANOMALY":28.1468,"EPHEMERIS_TYPE":0,"CLASSIFICATION_TYPE":"U","NORAD_CAT_ID":59068,"ELEMENT_SET_NO":999,"REV_AT_EPOCH":10923,"BSTAR":0.00043011275,"MEAN_MOTION_DOT":5.43e-5,"MEAN_MOTION_DDOT":0},{"OBJECT_NAME":"SITRO-AIS 28","OBJECT_ID":"2024-039U","EPOCH":"2026-03-05T07:53:11.518656","MEAN_MOTION":14.92826045,"ECCENTRICITY":0.01451845,"INCLINATION":95.3943,"RA_OF_ASC_NODE":163.9396,"ARG_OF_PERICENTER":330.8262,"MEAN_ANOMALY":28.4908,"EPHEMERIS_TYPE":0,"CLASSIFICATION_TYPE":"U","NORAD_CAT_ID":59071,"ELEMENT_SET_NO":999,"REV_AT_EPOCH":10924,"BSTAR":0.00041290608,"MEAN_MOTION_DOT":5.216e-5,"MEAN_MOTION_DDOT":0},{"OBJECT_NAME":"GRBBETA","OBJECT_ID":"2024-128C","EPOCH":"2026-03-04T12:39:27.946656","MEAN_MOTION":15.05714089,"ECCENTRICITY":0.0051948,"INCLINATION":61.9892,"RA_OF_ASC_NODE":223.2246,"ARG_OF_PERICENTER":113.1459,"MEAN_ANOMALY":247.512,"EPHEMERIS_TYPE":0,"CLASSIFICATION_TYPE":"U","NORAD_CAT_ID":60237,"ELEMENT_SET_NO":999,"REV_AT_EPOCH":9050,"BSTAR":0.0005512,"MEAN_MOTION_DOT":8.048e-5,"MEAN_MOTION_DDOT":0},{"OBJECT_NAME":"OOV-CUBE (TUBSAT-30)","OBJECT_ID":"2024-128F","EPOCH":"2026-03-04T21:41:08.049696","MEAN_MOTION":15.02205334,"ECCENTRICITY":0.00549234,"INCLINATION":61.9939,"RA_OF_ASC_NODE":229.0603,"ARG_OF_PERICENTER":111.3663,"MEAN_ANOMALY":249.3301,"EPHEMERIS_TYPE":0,"CLASSIFICATION_TYPE":"U","NORAD_CAT_ID":60240,"ELEMENT_SET_NO":999,"REV_AT_EPOCH":9044,"BSTAR":0.0003546024,"MEAN_MOTION_DOT":4.636e-5,"MEAN_MOTION_DDOT":0},{"OBJECT_NAME":"ROBUSTA-3A (MEDITERRANEE)","OBJECT_ID":"2024-128J","EPOCH":"2026-03-04T21:31:16.609728","MEAN_MOTION":15.09945512,"ECCENTRICITY":0.005231,"INCLINATION":61.986,"RA_OF_ASC_NODE":216.5911,"ARG_OF_PERICENTER":107.487,"MEAN_ANOMALY":253.1952,"EPHEMERIS_TYPE":0,"CLASSIFICATION_TYPE":"U","NORAD_CAT_ID":60243,"ELEMENT_SET_NO":999,"REV_AT_EPOCH":9066,"BSTAR":0.0007779606,"MEAN_MOTION_DOT":0.00012902,"MEAN_MOTION_DDOT":0},{"OBJECT_NAME":"LASARSAT","OBJECT_ID":"2024-247Q","EPOCH":"2026-03-05T05:01:44.790816","MEAN_MOTION":15.39833559,"ECCENTRICITY":0.00027827,"INCLINATION":44.9754,"RA_OF_ASC_NODE":123.6865,"ARG_OF_PERICENTER":357.5734,"MEAN_ANOMALY":2.5139,"EPHEMERIS_TYPE":0,"CLASSIFICATION_TYPE":"U","NORAD_CAT_ID":62391,"ELEMENT_SET_NO":999,"REV_AT_EPOCH":6725,"BSTAR":0.00087708329,"MEAN_MOTION_DOT":0.00035378,"MEAN_MOTION_DDOT":0},{"OBJECT_NAME":"CROCUBE","OBJECT_ID":"2024-247T","EPOCH":"2026-03-04T04:55:41.656800","MEAN_MOTION":15.40856803,"ECCENTRICITY":0.00030193,"INCLINATION":44.9726,"RA_OF_ASC_NODE":127.9459,"ARG_OF_PERICENTER":338.1177,"MEAN_ANOMALY":21.9582,"EPHEMERIS_TYPE":0,"CLASSIFICATION_TYPE":"U","NORAD_CAT_ID":62394,"ELEMENT_SET_NO":999,"REV_AT_EPOCH":6711,"BSTAR":0.0010733311,"MEAN_MOTION_DOT":0.00044929,"MEAN_MOTION_DDOT":0}]
